JY1SAT (JO-97)          
1 43803U 18099AX  26068.68634132  .00017774  00000+0  60804-3 0  9996
2 43803  97.4249 131.3625 0004723 256.6795 103.3919 15.30302628398390
STARLINK-34359          
1 64280U 25120AA  26068.82049448  .00021923  00000+0  75014-3 0  9997
2 64280  53.1573 116.2561 0001457  65.7146 294.4007 15.30200014 43935
